LANDSAT 9               
1 49260U 21088A   23343.13275285  .00000386  00000+0  95711-4 0  9991
2 49260  98.2128  50.7630 0001238  86.0991 274.0349 14.57096826116860
